STARLINK-31879          
1 59937U 24106R   26068.13999741 -.00001318  00000+0 -38392-4 0  9994
2 59937  43.0029 336.0628 0001412 259.6314 100.4379 15.27580603100483
BLUEBON                 
1 62688U 25009CH  26068.70316231  .00010452  00000+0  37313-3 0  9992
2 62688  97.4017 152.2033 0001193  43.3900 316.7434 15.29047253 63767
